STARLINK-2300
1 28027C 21024BC  21325.15090369  .00001929  00000-0  12925-3 0  3252
2 28027  53.0530 157.5490 0001972  77.6720 234.8947 15.06396907    12
